1 27424U 02022A   10189.80868105  .00000081  00000-0  27875-4 0  6854
2 27424 098.1868 130.7564 0001969 059.6839 300.4562 14.57129997435064